FALCONSAT-6             
1 43815U 18099BK  26068.72544389  .00005029  00000+0  19477-3 0  9998
2 43815  97.3865 145.8165 0014370 297.0944 181.0714 15.26532865398556
STARLINK-32764          
1 62570U 25006S   26068.00523683  .00030599  00000+0  11168-2 0  9996
2 62570  42.9990 296.8116 0001023 259.3279 100.7457 15.27581634 64759
